0 EQUISAT
1 43552U 98067PA  20084.75971204 +.00023682 +00000-0 +19606-3 0  9994
2 43552 051.6378 002.4880 0005967 128.0446 232.1091 15.70112198096889
0 EQUISAT
1 43552U 98067PA  20085.14159153  .00021929  00000-0  18182-3 0  9999
2 43552  51.6378   0.5389 0005913 128.9868 231.1657 15.70129135 96943
0 EQUISAT
1 43552U 98067PA  20086.73271126  .00020755  00000-0  17188-3 0  9991
2 43552  51.6374 352.4143 0005905 135.6644 224.4827 15.70198239 97197
0 EQUISAT
1 43552U 98067PA  20087.30549689 +.00024539 +00000-0 +20201-3 0  9991
2 43552 051.6373 349.4897 0005838 137.7688 222.3760 15.70226385097281
0 EQUISAT
1 43552U 98067PA  20088.06919728  .00024167  00000-0  19877-3 0  9994
2 43552  51.6372 345.5901 0005836 140.5617 219.5806 15.70257958 97408
0 EQUISAT
1 43552U 98067PA  20088.13283805 +.00020746 +00000-0 +17138-3 0  9999
2 43552 051.6372 345.2650 0005830 140.8302 219.3118 15.70258829097417
0 EQUISAT
1 43552U 98067PA  20088.89652049 +.00021325 +00000-0 +17577-3 0  9993
2 43552 051.6370 341.3649 0005828 144.0394 216.0997 15.70293032097531
0 EQUISAT
1 43552U 98067PA  20089.08743874  .00021354  00000-0  17594-3 0  9993
2 43552  51.6371 340.3899 0005812 144.7930 215.3452 15.70300977 97562
0 EQUISAT
1 43552U 98067PA  20089.40563330 +.00019912 +00000-0 +16433-3 0  9994
2 43552 051.6371 338.7644 0005820 146.3147 213.8222 15.70313996097617
0 EQUISAT
1 43552U 98067PA  20089.91473904 +.00022984 +00000-0 +18868-3 0  9994
2 43552 051.6371 336.1644 0005792 148.1073 212.0276 15.70337709097691
0 EQUISAT
1 43552U 98067PA  20090.10565167  .00023093  00000-0  18948-3 0  9991
2 43552  51.6370 335.1895 0005755 148.8166 211.3174 15.70346765 97721
0 EQUISAT
1 43552U 98067PA  20090.80565437 +.00019384 +00000-0 +15968-3 0  9995
2 43552 051.6371 331.6139 0005757 151.8465 208.2845 15.70379342097831
0 EQUISAT
1 43552U 98067PA  20090.86929014 +.00019876 +00000-0 +16358-3 0  9996
2 43552 051.6371 331.2889 0005747 152.0574 208.0733 15.70382934097848
0 EQUISAT
1 43552U 98067PA  20091.88743913 +.00029282 +00000-0 +23775-3 0  9994
2 43552 051.6371 326.0880 0005680 156.3631 203.7629 15.70453268098002
0 EQUISAT
1 43552U 98067PA  20092.01470458  .00030234  00000-0  24520-3 0  9999
2 43552  51.6372 325.4381 0005651 156.8810 203.2442 15.70462818 98025
0 EQUISAT
1 43552U 98067PA  20092.90554517 +.00027089 +00000-0 +21980-3 0  9997
2 43552 051.6370 320.8871 0005601 160.7330 199.3880 15.70515237098162
0 EQUISAT
1 43552U 98067PA  20093.79635664 +.00022367 +00000-0 +18206-3 0  9999
2 43552 051.6370 316.3351 0005552 164.5471 195.5697 15.70563012098302
0 EQUISAT
1 43552U 98067PA  20094.11449757  .00024436  00000-0  19827-3 0  9991
2 43552  51.6368 314.7106 0005480 166.0967 194.0182 15.70581263 98352
0 EQUISAT
1 43552U 98067PA  20094.30537969 +.00028887 +00000-0 +23324-3 0  9996
2 43552 051.6368 313.7351 0005492 167.0331 193.0809 15.70595957098385
0 EQUISAT
1 43552U 98067PA  20094.87802081 +.00025731 +00000-0 +20813-3 0  9993
2 43552 051.6364 310.8096 0005462 169.3593 190.7522 15.70622294098478
0 EQUISAT
1 43552U 98067PA  20095.00527260 +.00027030 +00000-0 +21829-3 0  9994
2 43552 051.6364 310.1595 0005437 169.9007 190.2101 15.70630711098496
0 EQUISAT
1 43552U 98067PA  20095.83239499 +.00021828 +00000-0 +17699-3 0  9998
2 43552 051.6361 305.9331 0005389 173.7676 186.3389 15.70674906098627
0 EQUISAT
1 43552U 98067PA  20096.27775917 +.00023449 +00000-0 +18954-3 0  9993
2 43552 051.6358 303.6567 0005372 175.8616 184.2427 15.70700081098699
0 EQUISAT
1 43552U 98067PA  20096.85036114 +.00025686 +00000-0 +20686-3 0  9996
2 43552 051.6356 300.7308 0005307 178.2416 181.8602 15.70729472098784
0 EQUISAT
1 43552U 98067PA  20096.85036114  .00025686  00000-0  20686-3 0  9996
2 43552  51.6356 300.7308 0005307 178.2416 181.8602 15.70729472 98784
0 EQUISAT
1 43552U 98067PA  20096.97760404 +.00024762 +00000-0 +19956-3 0  9997
2 43552 051.6356 300.0807 0005276 178.8967 181.2044 15.70736760098808
0 EQUISAT
1 43552U 98067PA  20097.80467298 +.00024190 +00000-0 +19474-3 0  9995
2 43552 051.6354 295.8534 0005236 182.4031 177.6943 15.70777924098931
0 EQUISAT
1 43552U 98067PA  20097.99553194  .00024494  00000-0  19704-3 0  9999
2 43552  51.6353 294.8779 0005199 183.3670 176.7294 15.70787863 98962
0 EQUISAT
1 43552U 98067PA  20098.56810241 +.00021509 +00000-0 +17349-3 0  9999
2 43552 051.6354 291.9507 0005208 185.5730 174.5210 15.70812721099059
0 EQUISAT
1 43552U 98067PA  20098.82257540 +.00023018 +00000-0 +18521-3 0  9995
2 43552 051.6353 290.6504 0005155 186.6847 173.4083 15.70824078099091
0 EQUISAT
1 43552U 98067PA  20099.52236450 +.00030154 +00000-0 +24053-3 0  9996
2 43552 051.6353 287.0728 0005138 189.6429 170.4471 15.70865472099203
0 EQUISAT
1 43552U 98067PA  20099.77682921  .00029160  00000-0  23267-3 0  9992
2 43552  51.6354 285.7723 0005088 190.9815 169.1072 15.70877931 99241
0 EQUISAT
1 43552U 98067PA  20100.54020633 +.00026704 +00000-0 +21312-3 0  9996
2 43552 051.6356 281.8693 0005067 194.0510 166.0347 15.70925205099362
0 EQUISAT
1 43552U 98067PA  20100.79466024  .00028808  00000-0  22932-3 0  9997
2 43552  51.6357 280.5690 0005007 195.2401 164.8446 15.70941914 99408
0 EQUISAT
1 43552U 98067PA  20100.92188578 +.00031000 +00000-0 +24624-3 0  9995
2 43552 051.6357 279.9185 0004983 196.1445 163.9395 15.70952496099421
0 EQUISAT
1 43552U 98067PA  20101.87606060 +.00030078 +00000-0 +23852-3 0  9997
2 43552 051.6359 275.0402 0004900 200.6945 159.3855 15.71008985099579
0 EQUISAT
1 43552U 98067PA  20101.93967097  .00029726  00000-0  23576-3 0  9995
2 43552  51.6359 274.7142 0004938 200.7009 159.3789 15.71012679 99581
0 EQUISAT
1 43552U 98067PA  20102.19411139 +.00026133 +00000-0 +20782-3 0  9990
2 43552 051.6360 273.4137 0004912 202.0700 158.0087 15.71024978099625
0 EQUISAT
1 43552U 98067PA  20102.70298564 +.00027774 +00000-0 +22027-3 0  9998
2 43552 051.6361 270.8122 0004843 204.4094 155.6675 15.71053542099700
0 EQUISAT
1 43552U 98067PA  20103.46627780  .00030948  00000-0  24431-3 0  9996
2 43552  51.6360 266.9091 0004818 208.1202 151.9536 15.71102455 99820
0 EQUISAT
1 43552U 98067PA  20103.91152064 +.00026711 +00000-0 +21139-3 0  9999
2 43552 051.6359 264.6330 0004728 210.9584 149.1136 15.71127893099898
0 EQUISAT
1 43552U 98067PA  20104.80198326 +.00027404 +00000-0 +21624-3 0  9998
2 43552 051.6358 260.0795 0004673 215.2988 144.7700 15.71183213100032
0 EQUISAT
1 43552U 98067PA  20105.43801034 +.00026698 +00000-0 +21050-3 0  9992
2 43552 051.6356 256.8263 0004658 218.2196 141.8472 15.71218737100135
0 EQUISAT
1 43552U 98067PA  20105.69241674  .00033770  00000-0  26457-3 0  9993
2 43552  51.6354 255.5256 0004610 220.1035 139.9623 15.71238525100170
0 EQUISAT
1 43552U 98067PA  20105.88322040 +.00027673 +00000-0 +21775-3 0  9994
2 43552 051.6353 254.5499 0004604 221.2083 138.8568 15.71244812100201
0 EQUISAT
1 43552U 98067PA  20106.32842259 +.00031318 +00000-0 +24540-3 0  9997
2 43552 051.6352 252.2725 0004625 223.0923 136.9714 15.71275056100276
0 EQUISAT
1 43552U 98067PA  20106.64641993 +.00031200 +00000-0 +24431-3 0  9993
2 43552 051.6351 250.6463 0004577 224.8453 135.2176 15.71293041100323
0 EQUISAT
1 43552U 98067PA  20107.09161000 +.00025451 +00000-0 +20011-3 0  9990
2 43552 051.6351 248.3690 0004571 227.0408 133.0207 15.71314740100396
0 EQUISAT
1 43552U 98067PA  20107.60039042  .00028501  00000-0  22318-3 0  9998
2 43552  51.6350 245.7667 0004525 229.5646 130.4957 15.71343797100476
0 EQUISAT
1 43552U 98067PA  20107.66398736 +.00028680 +00000-0 +22452-3 0  9999
2 43552 051.6350 245.4414 0004514 229.8678 130.1924 15.71347423100481
0 EQUISAT
1 43552U 98067PA  20108.55432843 +.00025180 +00000-0 +19738-3 0  9991
2 43552 051.6350 240.8868 0004496 234.2203 125.8377 15.71395173100620
0 EQUISAT
1 43552U 98067PA  20108.61792323  .00025281  00000-0  19812-3 0  9995
2 43552  51.6348 240.5616 0004491 234.6754 125.3824 15.71398532100630
0 EQUISAT
1 43552U 98067PA  20109.57182835 +.00024007 +00000-0 +18801-3 0  9994
2 43552 051.6351 235.6815 0004435 239.3054 120.7507 15.71448353100783
0 EQUISAT
1 43552U 98067PA  20109.76260586  .00023104  00000-0  18106-3 0  9990
2 43552  51.6351 234.7056 0004417 240.7363 119.3194 15.71457826100814
0 EQUISAT
1 43552U 98067PA  20110.71647450 +.00024441 +00000-0 +19083-3 0  9996
2 43552 051.6354 229.8256 0004391 245.4845 114.5696 15.71509002100966
0 EQUISAT
1 43552U 98067PA  20111.47954889  .00032468  00000-0  25129-3 0  9993
2 43552  51.6357 225.9209 0004374 249.0971 110.9559 15.71551584101089
0 EQUISAT
1 43552U 98067PA  20111.67031410 +.00033817 +00000-0 +26137-3 0  9990
2 43552 051.6358 224.9451 0004348 250.3728 109.6800 15.71563222101114
0 EQUISAT
1 43552U 98067PA  20112.75128080  .00031693  00000-0  24447-3 0  9992
2 43552  51.6361 219.4130 0004342 255.3675 104.6842 15.71644764101281
0 EQUISAT
1 43552U 98067PA  20112.87844941 +.00030904 +00000-0 +23842-3 0  9998
2 43552 051.6360 218.7622 0004341 255.9475 104.1040 15.71654756101301
0 EQUISAT
1 43552U 98067PA  20113.57786590 +.00032805 +00000-0 +25222-3 0  9997
2 43552 051.6361 215.1829 0004311 259.4972 100.5541 15.71703956101415
0 EQUISAT
1 43552U 98067PA  20113.83219436 +.00029249 +00000-0 +22534-3 0  9997
2 43552 051.6361 213.8814 0004305 260.8488 099.2023 15.71718430101451
0 EQUISAT
1 43552U 98067PA  20113.83219436  .00029249  00000-0  22534-3 0  9997
2 43552  51.6361 213.8814 0004305 260.8488  99.2023 15.71718430101451
0 EQUISAT
1 43552U 98067PA  20114.53158496 +.00026806 +00000-0 +20663-3 0  9990
2 43552 051.6361 210.3020 0004299 264.4793 095.5714 15.71757793101566
0 EQUISAT
1 43552U 98067PA  20114.72232524 +.00025753 +00000-0 +19864-3 0  9997
2 43552 051.6361 209.3258 0004295 265.4341 094.6166 15.71767174101591
0 EQUISAT
1 43552U 98067PA  20114.97664401  .00024562  00000-0  18960-3 0  9990
2 43552  51.6360 208.0247 0004297 266.8731  93.1776 15.71778588101631
